SKYSAT-C4               
1 41771U 16058B   26168.00904735  .00014202  00000+0  26781-3 0  9996
2 41771  96.9166 189.7887 0001367 133.2052 226.9314 15.48581946545440
SKYSAT-C5               
1 41772U 16058C   26168.10392836  .00005959  00000+0  18073-3 0  9995
2 41772  97.0466 208.7481 0001082 316.1442  43.9716 15.34468979543735
SKYSAT-C2               
1 41773U 16058D   26168.06469888  .00010412  00000+0  24548-3 0  9997
2 41773  97.0162 190.1642 0004679  71.1807 288.9948 15.42069325545034
SKYSAT-C3               
1 41774U 16058E   26168.07891536  .00018467  00000+0  30236-3 0  9997
2 41774  96.8998 198.9295 0001501  94.9033 265.2393 15.52534621546090
SKYSAT-C11              
1 42987U 17068A   26167.92882697  .00023544  00000+0  31671-3 0  9993
2 42987  97.4356 316.7476 0000646  89.2660 270.8669 15.57882549483206
SKYSAT-C10              
1 42988U 17068B   26167.90112875  .00007374  00000+0  22215-3 0  9993
2 42988  97.4511 304.7449 0001110  96.3111 263.8258 15.34634381482315
SKYSAT-C9               
1 42989U 17068C   26167.91440233  .00011288  00000+0  27037-3 0  9993
2 42989  97.4430 305.6905 0009394 133.8098 226.3927 15.41555946482714
SKYSAT-C8               
1 42990U 17068D   26168.13333911  .00009258  00000+0  25826-3 0  9992
2 42990  97.4529 304.7790 0001478  95.8180 264.3233 15.36975735482304
SKYSAT-C7               
1 42991U 17068E   26168.12695598  .00009296  00000+0  25952-3 0  9996
2 42991  97.4538 305.7619 0007206 106.7958 253.4077 15.36926015482364
SKYSAT-C6               
1 42992U 17068F   26167.88587545  .00007756  00000+0  23662-3 0  9996
2 42992  97.4572 305.4883 0004420 138.2545 221.9035 15.34206495482275
